KUIPER-00549            
1 69616U 26140AA  26189.51801963  .00022075  00000+0  60289-3 0  9993
2 69616  51.8792 295.6817 0008354 347.4443  12.6335 15.37303773  4518
KUIPER-00550            
1 69617U 26140AB  26189.48116378  .00019347  00000+0  60179-3 0  9995
2 69617  51.8776 296.1721 0009029   0.5674 359.5320 15.33292950  4500
KUIPER-00551            
1 69618U 26140AC  26189.49384247  .00024495  00000+0  64866-3 0  9996
2 69618  51.8792 295.5241 0013440 260.4636  99.4832 15.38140272  4519
KUIPER-00554            
1 69619U 26140AD  26189.49841740  .00010323  00000+0  28301-3 0  9992
2 69619  51.8793 295.5545 0009993 263.0946  96.8904 15.37839142  4510
KUIPER-00555            
1 69620U 26140AE  26189.49573470  .00038138  00000+0  99917-3 0  9991
2 69620  51.8816 295.5377 0023185 294.7235  65.1339 15.38055599  4510
KUIPER-00556            
1 69621U 26140AF  26189.49612229  .00027558  00000+0  72654-3 0  9991
2 69621  51.8791 295.5405 0011772 241.1017 118.8790 15.38230181  4517
KUIPER-00557            
1 69622U 26140AG  26189.50249770  .00030558  00000+0  82465-3 0  9996
2 69622  51.8828 295.5865 0010050 273.9351  86.0487 15.37472623  4518
KUIPER-00560            
1 69623U 26140AH  26189.49777315  .00018544  00000+0  48420-3 0  9990
2 69623  51.8786 295.5489 0008883 279.1337  80.8645 15.38806592  4512
KUIPER-00561            
1 69624U 26140AJ  26189.50009766  .00020869  00000+0  54687-3 0  9996
2 69624  51.8816 295.5720 0008994 284.7174  75.2816 15.38612299  4516
KUIPER-00564            
1 69625U 26140AK  26189.50002315 -.00021066  00000+0 -55918-3 0  9990
2 69625  51.8812 295.5496 0009302 272.8771  96.5428 15.37212032  3769
KUIPER-00567            
1 69626U 26140AL  26189.49380792  .00024230  00000+0  63772-3 0  9998
2 69626  51.8775 295.5215 0013644 252.2625 107.6873 15.38332374  4516
KUIPER-00573            
1 69627U 26140AM  26189.50591142  .00026813  00000+0  72815-3 0  9991
2 69627  51.8792 295.6029 0010252 265.7377  94.2439 15.37346363  4516
