{"fetched_at":"2026-07-08T17:59:23.476Z","source":"https://celestrak.org/NORAD/elements/gp.php?GROUP=kuiper&FORMAT=JSON","constellation":"kuiper","records":[{"OBJECT_NAME":"KUIPER-00549","OBJECT_ID":"2026-140AA","EPOCH":"2026-07-08T12:25:56.896032","CLASSIFICATION_TYPE":"U","MEAN_MOTION":15.37303773,"ECCENTRICITY":0.0008354,"INCLINATION":51.8792,"RA_OF_ASC_NODE":295.6817,"ARG_OF_PERICENTER":347.4443,"MEAN_ANOMALY":12.6335,"EPHEMERIS_TYPE":0,"NORAD_CAT_ID":69616,"ELEMENT_SET_NO":999,"REV_AT_EPOCH":451,"BSTAR":0.00060289,"MEAN_MOTION_DOT":0.00022075,"MEAN_MOTION_DDOT":0},{"OBJECT_NAME":"KUIPER-00550","OBJECT_ID":"2026-140AB","EPOCH":"2026-07-08T11:32:52.550592","CLASSIFICATION_TYPE":"U","MEAN_MOTION":15.3329295,"ECCENTRICITY":0.0009029,"INCLINATION":51.8776,"RA_OF_ASC_NODE":296.1721,"ARG_OF_PERICENTER":0.5674,"MEAN_ANOMALY":359.532,"EPHEMERIS_TYPE":0,"NORAD_CAT_ID":69617,"ELEMENT_SET_NO":999,"REV_AT_EPOCH":450,"BSTAR":0.00060179,"MEAN_MOTION_DOT":0.00019347,"MEAN_MOTION_DDOT":0},{"OBJECT_NAME":"KUIPER-00551","OBJECT_ID":"2026-140AC","EPOCH":"2026-07-08T11:51:07.989408","CLASSIFICATION_TYPE":"U","MEAN_MOTION":15.38140272,"ECCENTRICITY":0.001344,"INCLINATION":51.8792,"RA_OF_ASC_NODE":295.5241,"ARG_OF_PERICENTER":260.4636,"MEAN_ANOMALY":99.4832,"EPHEMERIS_TYPE":0,"NORAD_CAT_ID":69618,"ELEMENT_SET_NO":999,"REV_AT_EPOCH":451,"BSTAR":0.00064866,"MEAN_MOTION_DOT":0.00024495,"MEAN_MOTION_DDOT":0},{"OBJECT_NAME":"KUIPER-00554","OBJECT_ID":"2026-140AD","EPOCH":"2026-07-08T11:57:43.263360","CLASSIFICATION_TYPE":"U","MEAN_MOTION":15.37839142,"ECCENTRICITY":0.0009993,"INCLINATION":51.8793,"RA_OF_ASC_NODE":295.5545,"ARG_OF_PERICENTER":263.0946,"MEAN_ANOMALY":96.8904,"EPHEMERIS_TYPE":0,"NORAD_CAT_ID":69619,"ELEMENT_SET_NO":999,"REV_AT_EPOCH":451,"BSTAR":0.00028301,"MEAN_MOTION_DOT":0.00010323,"MEAN_MOTION_DDOT":0},{"OBJECT_NAME":"KUIPER-00555","OBJECT_ID":"2026-140AE","EPOCH":"2026-07-08T11:53:51.478080","CLASSIFICATION_TYPE":"U","MEAN_MOTION":15.38055599,"ECCENTRICITY":0.0023185,"INCLINATION":51.8816,"RA_OF_ASC_NODE":295.5377,"ARG_OF_PERICENTER":294.7235,"MEAN_ANOMALY":65.1339,"EPHEMERIS_TYPE":0,"NORAD_CAT_ID":69620,"ELEMENT_SET_NO":999,"REV_AT_EPOCH":451,"BSTAR":0.00099917,"MEAN_MOTION_DOT":0.00038138,"MEAN_MOTION_DDOT":0},{"OBJECT_NAME":"KUIPER-00556","OBJECT_ID":"2026-140AF","EPOCH":"2026-07-08T11:54:24.965856","CLASSIFICATION_TYPE":"U","MEAN_MOTION":15.38230181,"ECCENTRICITY":0.0011772,"INCLINATION":51.8791,"RA_OF_ASC_NODE":295.5405,"ARG_OF_PERICENTER":241.1017,"MEAN_ANOMALY":118.879,"EPHEMERIS_TYPE":0,"NORAD_CAT_ID":69621,"ELEMENT_SET_NO":999,"REV_AT_EPOCH":451,"BSTAR":0.00072654,"MEAN_MOTION_DOT":0.00027558,"MEAN_MOTION_DDOT":0},{"OBJECT_NAME":"KUIPER-00557","OBJECT_ID":"2026-140AG","EPOCH":"2026-07-08T12:03:35.801280","CLASSIFICATION_TYPE":"U","MEAN_MOTION":15.37472623,"ECCENTRICITY":0.001005,"INCLINATION":51.8828,"RA_OF_ASC_NODE":295.5865,"ARG_OF_PERICENTER":273.9351,"MEAN_ANOMALY":86.0487,"EPHEMERIS_TYPE":0,"NORAD_CAT_ID":69622,"ELEMENT_SET_NO":999,"REV_AT_EPOCH":451,"BSTAR":0.00082465,"MEAN_MOTION_DOT":0.00030558,"MEAN_MOTION_DDOT":0},{"OBJECT_NAME":"KUIPER-00560","OBJECT_ID":"2026-140AH","EPOCH":"2026-07-08T11:56:47.600160","CLASSIFICATION_TYPE":"U","MEAN_MOTION":15.38806592,"ECCENTRICITY":0.0008883,"INCLINATION":51.8786,"RA_OF_ASC_NODE":295.5489,"ARG_OF_PERICENTER":279.1337,"MEAN_ANOMALY":80.8645,"EPHEMERIS_TYPE":0,"NORAD_CAT_ID":69623,"ELEMENT_SET_NO":999,"REV_AT_EPOCH":451,"BSTAR":0.0004842,"MEAN_MOTION_DOT":0.00018544,"MEAN_MOTION_DDOT":0},{"OBJECT_NAME":"KUIPER-00561","OBJECT_ID":"2026-140AJ","EPOCH":"2026-07-08T12:00:08.437824","CLASSIFICATION_TYPE":"U","MEAN_MOTION":15.38612299,"ECCENTRICITY":0.0008994,"INCLINATION":51.8816,"RA_OF_ASC_NODE":295.572,"ARG_OF_PERICENTER":284.7174,"MEAN_ANOMALY":75.2816,"EPHEMERIS_TYPE":0,"NORAD_CAT_ID":69624,"ELEMENT_SET_NO":999,"REV_AT_EPOCH":451,"BSTAR":0.00054687,"MEAN_MOTION_DOT":0.00020869,"MEAN_MOTION_DDOT":0},{"OBJECT_NAME":"KUIPER-00564","OBJECT_ID":"2026-140AK","EPOCH":"2026-07-08T12:00:02.000160","CLASSIFICATION_TYPE":"U","MEAN_MOTION":15.37212032,"ECCENTRICITY":0.0009302,"INCLINATION":51.8812,"RA_OF_ASC_NODE":295.5496,"ARG_OF_PERICENTER":272.8771,"MEAN_ANOMALY":96.5428,"EPHEMERIS_TYPE":0,"NORAD_CAT_ID":69625,"ELEMENT_SET_NO":999,"REV_AT_EPOCH":376,"BSTAR":-0.00055918,"MEAN_MOTION_DOT":-0.00021066,"MEAN_MOTION_DDOT":0},{"OBJECT_NAME":"KUIPER-00567","OBJECT_ID":"2026-140AL","EPOCH":"2026-07-08T11:51:05.004288","CLASSIFICATION_TYPE":"U","MEAN_MOTION":15.38332374,"ECCENTRICITY":0.0013644,"INCLINATION":51.8775,"RA_OF_ASC_NODE":295.5215,"ARG_OF_PERICENTER":252.2625,"MEAN_ANOMALY":107.6873,"EPHEMERIS_TYPE":0,"NORAD_CAT_ID":69626,"ELEMENT_SET_NO":999,"REV_AT_EPOCH":451,"BSTAR":0.00063772,"MEAN_MOTION_DOT":0.0002423,"MEAN_MOTION_DDOT":0},{"OBJECT_NAME":"KUIPER-00573","OBJECT_ID":"2026-140AM","EPOCH":"2026-07-08T12:08:30.746688","CLASSIFICATION_TYPE":"U","MEAN_MOTION":15.37346363,"ECCENTRICITY":0.0010252,"INCLINATION":51.8792,"RA_OF_ASC_NODE":295.6029,"ARG_OF_PERICENTER":265.7377,"MEAN_ANOMALY":94.2439,"EPHEMERIS_TYPE":0,"NORAD_CAT_ID":69627,"ELEMENT_SET_NO":999,"REV_AT_EPOCH":451,"BSTAR":0.00072815,"MEAN_MOTION_DOT":0.00026813,"MEAN_MOTION_DDOT":0}]}
